{"type":"FeatureCollection","features":[{"type":"Feature","geometry":{"type":"Point","coordinates":[-89.54,34.48]},"properties":{"date":"2026-04-29","kind":"hail","mag":1,"unit":"in","src":"NWS Storm Events"}},{"type":"Feature","geometry":{"type":"Point","coordinates":[-89.44,34.19]},"properties":{"date":"2026-04-28","kind":"hail","mag":1,"unit":"in","src":"NWS Storm Events"}},{"type":"Feature","geometry":{"type":"Point","coordinates":[-89.62,34.84]},"properties":{"date":"2026-04-28","kind":"wind","mag":70,"unit":"kt","src":"NWS Storm Events"}},{"type":"Feature","geometry":{"type":"Point","coordinates":[-88.7,34.37]},"properties":{"date":"2026-04-28","kind":"wind","mag":50,"unit":"kt","src":"NWS Storm Events"}},{"type":"Feature","geometry":{"type":"Point","coordinates":[-88.66,34.38]},"properties":{"date":"2026-04-28","kind":"wind","mag":50,"unit":"kt","src":"NWS Storm Events"}},{"type":"Feature","geometry":{"type":"Point","coordinates":[-88.7295,34.2534]},"properties":{"date":"2026-04-28","kind":"wind","mag":50,"unit":"kt","src":"NWS Storm Events"}},{"type":"Feature","geometry":{"type":"Point","coordinates":[-88.7399,34.1186]},"properties":{"date":"2026-04-28","kind":"wind","mag":50,"unit":"kt","src":"NWS Storm Events"}},{"type":"Feature","geometry":{"type":"Point","coordinates":[-88.7541,34.1032]},"properties":{"date":"2026-04-28","kind":"wind","mag":50,"unit":"kt","src":"NWS Storm Events"}},{"type":"Feature","geometry":{"type":"Point","coordinates":[-88.7533,34.4711]},"properties":{"date":"2026-04-28","kind":"wind","mag":50,"unit":"kt","src":"NWS Storm Events"}},{"type":"Feature","geometry":{"type":"Point","coordinates":[-88.72,34.12]},"properties":{"date":"2026-04-28","kind":"wind","mag":50,"unit":"kt","src":"NWS Storm Events"}},{"type":"Feature","geometry":{"type":"Point","coordinates":[-88.65,34.46]},"properties":{"date":"2026-04-28","kind":"wind","mag":50,"unit":"kt","src":"NWS Storm Events"}},{"type":"Feature","geometry":{"type":"Point","coordinates":[-89.6787,34.9517]},"properties":{"date":"2026-04-28","kind":"wind","mag":50,"unit":"kt","src":"NWS Storm Events"}},{"type":"Feature","geometry":{"type":"Point","coordinates":[-88.82,34.36]},"properties":{"date":"2026-03-15","kind":"hail","mag":1,"unit":"in","src":"NWS Storm Events"}},{"type":"Feature","geometry":{"type":"Point","coordinates":[-88.7885,34.3106]},"properties":{"date":"2026-03-15","kind":"hail","mag":1,"unit":"in","src":"NWS Storm Events"}},{"type":"Feature","geometry":{"type":"Point","coordinates":[-89.65,34.54]},"properties":{"date":"2026-03-15","kind":"wind","mag":50,"unit":"kt","src":"NWS Storm Events"}},{"type":"Feature","geometry":{"type":"Point","coordinates":[-89.4567,34.2925]},"properties":{"date":"2026-03-15","kind":"wind","mag":50,"unit":"kt","src":"NWS Storm Events"}},{"type":"Feature","geometry":{"type":"Point","coordinates":[-89.62,34.94]},"properties":{"date":"2026-03-15","kind":"wind","mag":50,"unit":"kt","src":"NWS Storm Events"}},{"type":"Feature","geometry":{"type":"Point","coordinates":[-89.52,34.31]},"properties":{"date":"2026-03-09","kind":"wind","mag":50,"unit":"kt","src":"NWS Storm Events"}},{"type":"Feature","geometry":{"type":"Point","coordinates":[-89.58,34.58]},"properties":{"date":"2026-02-26","kind":"hail","mag":1,"unit":"in","src":"NWS Storm Events"}},{"type":"Feature","geometry":{"type":"Point","coordinates":[-88.73,34.27]},"properties":{"date":"2026-02-26","kind":"hail","mag":0.75,"unit":"in","src":"NWS Storm Events"}},{"type":"Feature","geometry":{"type":"Point","coordinates":[-88.74,34.24]},"properties":{"date":"2026-02-26","kind":"hail","mag":0.75,"unit":"in","src":"NWS Storm Events"}},{"type":"Feature","geometry":{"type":"Point","coordinates":[-89.3771,34.7473]},"properties":{"date":"2025-10-18","kind":"wind","mag":50,"unit":"kt","src":"NWS Storm Events"}},{"type":"Feature","geometry":{"type":"Point","coordinates":[-89.45,34.8]},"properties":{"date":"2025-09-22","kind":"wind","mag":50,"unit":"kt","src":"NWS Storm Events"}},{"type":"Feature","geometry":{"type":"Point","coordinates":[-90.5984,34.0158]},"properties":{"date":"2025-09-22","kind":"wind","mag":50,"unit":"kt","src":"NWS Storm Events"}},{"type":"Feature","geometry":{"type":"Point","coordinates":[-88.7935,34.2602]},"properties":{"date":"2025-09-19","kind":"wind","mag":50,"unit":"kt","src":"NWS Storm Events"}},{"type":"Feature","geometry":{"type":"Point","coordinates":[-89.69,34.87]},"properties":{"date":"2025-09-15","kind":"wind","mag":50,"unit":"kt","src":"NWS Storm Events"}},{"type":"Feature","geometry":{"type":"Point","coordinates":[-89.53,34.36]},"properties":{"date":"2025-06-19","kind":"wind","mag":50,"unit":"kt","src":"NWS Storm Events"}},{"type":"Feature","geometry":{"type":"Point","coordinates":[-89.46,34.65]},"properties":{"date":"2025-06-12","kind":"wind","mag":50,"unit":"kt","src":"NWS Storm Events"}},{"type":"Feature","geometry":{"type":"Point","coordinates":[-89.61,34.43]},"properties":{"date":"2025-06-12","kind":"wind","mag":50,"unit":"kt","src":"NWS Storm Events"}},{"type":"Feature","geometry":{"type":"Point","coordinates":[-88.62,34.09]},"properties":{"date":"2025-06-07","kind":"wind","mag":50,"unit":"kt","src":"NWS Storm Events"}},{"type":"Feature","geometry":{"type":"Point","coordinates":[-88.71,34.36]},"properties":{"date":"2025-06-07","kind":"wind","mag":50,"unit":"kt","src":"NWS Storm Events"}},{"type":"Feature","geometry":{"type":"Point","coordinates":[-88.7986,34.341]},"properties":{"date":"2025-06-07","kind":"wind","mag":50,"unit":"kt","src":"NWS Storm Events"}},{"type":"Feature","geometry":{"type":"Point","coordinates":[-89.6861,34.5194]},"properties":{"date":"2025-06-07","kind":"wind","mag":50,"unit":"kt","src":"NWS Storm Events"}},{"type":"Feature","geometry":{"type":"Point","coordinates":[-89.42,34.31]},"properties":{"date":"2025-06-07","kind":"wind","mag":50,"unit":"kt","src":"NWS Storm Events"}},{"type":"Feature","geometry":{"type":"Point","coordinates":[-89.4121,34.2791]},"properties":{"date":"2025-06-07","kind":"wind","mag":50,"unit":"kt","src":"NWS Storm Events"}},{"type":"Feature","geometry":{"type":"Point","coordinates":[-89.7053,34.3538]},"properties":{"date":"2025-06-07","kind":"wind","mag":50,"unit":"kt","src":"NWS Storm Events"}},{"type":"Feature","geometry":{"type":"Point","coordinates":[-89.52,34.34]},"properties":{"date":"2025-06-07","kind":"wind","mag":50,"unit":"kt","src":"NWS Storm Events"}},{"type":"Feature","geometry":{"type":"Point","coordinates":[-89.49,34.29]},"properties":{"date":"2025-05-25","kind":"wind","mag":61,"unit":"kt","src":"NWS Storm Events"}},{"type":"Feature","geometry":{"type":"Point","coordinates":[-89.71,34.26]},"properties":{"date":"2025-05-25","kind":"wind","mag":61,"unit":"kt","src":"NWS Storm Events"}},{"type":"Feature","geometry":{"type":"Point","coordinates":[-88.63,34.3]},"properties":{"date":"2025-05-25","kind":"hail","mag":1,"unit":"in","src":"NWS Storm Events"}},{"type":"Feature","geometry":{"type":"Point","coordinates":[-88.58,34.27]},"properties":{"date":"2025-05-25","kind":"hail","mag":1,"unit":"in","src":"NWS Storm Events"}},{"type":"Feature","geometry":{"type":"Point","coordinates":[-89.47,34.41]},"properties":{"date":"2025-05-20","kind":"hail","mag":1,"unit":"in","src":"NWS Storm Events"}},{"type":"Feature","geometry":{"type":"Point","coordinates":[-89.49,34.4]},"properties":{"date":"2025-05-20","kind":"hail","mag":1.75,"unit":"in","src":"NWS Storm Events"}},{"type":"Feature","geometry":{"type":"Point","coordinates":[-90.5,34.36]},"properties":{"date":"2025-05-20","kind":"hail","mag":1,"unit":"in","src":"NWS Storm Events"}},{"type":"Feature","geometry":{"type":"Point","coordinates":[-88.7,34.09]},"properties":{"date":"2025-05-20","kind":"hail","mag":1,"unit":"in","src":"NWS Storm Events"}},{"type":"Feature","geometry":{"type":"Point","coordinates":[-89.71,34.83]},"properties":{"date":"2025-05-20","kind":"wind","mag":52,"unit":"kt","src":"NWS Storm Events"}},{"type":"Feature","geometry":{"type":"Point","coordinates":[-89.69,34.84]},"properties":{"date":"2025-05-20","kind":"wind","mag":52,"unit":"kt","src":"NWS Storm Events"}},{"type":"Feature","geometry":{"type":"Point","coordinates":[-89.43,34.9]},"properties":{"date":"2025-05-20","kind":"wind","mag":52,"unit":"kt","src":"NWS Storm Events"}},{"type":"Feature","geometry":{"type":"Point","coordinates":[-89.55,34.4]},"properties":{"date":"2025-05-20","kind":"wind","mag":52,"unit":"kt","src":"NWS Storm Events"}},{"type":"Feature","geometry":{"type":"Point","coordinates":[-89.56,34.45]},"properties":{"date":"2025-05-20","kind":"wind","mag":52,"unit":"kt","src":"NWS Storm Events"}},{"type":"Feature","geometry":{"type":"Point","coordinates":[-89.55,34.4]},"properties":{"date":"2025-05-20","kind":"wind","mag":52,"unit":"kt","src":"NWS Storm Events"}},{"type":"Feature","geometry":{"type":"Point","coordinates":[-89.44,34.89]},"properties":{"date":"2025-05-20","kind":"wind","mag":64,"unit":"kt","src":"NWS Storm Events"}},{"type":"Feature","geometry":{"type":"Point","coordinates":[-89.71,34.83]},"properties":{"date":"2025-05-18","kind":"wind","mag":58,"unit":"kt","src":"NWS Storm Events"}},{"type":"Feature","geometry":{"type":"Point","coordinates":[-89.6,34.84]},"properties":{"date":"2025-05-18","kind":"wind","mag":60,"unit":"kt","src":"NWS Storm Events"}},{"type":"Feature","geometry":{"type":"Point","coordinates":[-90.59,34.12]},"properties":{"date":"2025-05-18","kind":"wind","mag":52,"unit":"kt","src":"NWS Storm Events"}},{"type":"Feature","geometry":{"type":"Point","coordinates":[-89.32,34.64]},"properties":{"date":"2025-05-18","kind":"wind","mag":52,"unit":"kt","src":"NWS Storm Events"}},{"type":"Feature","geometry":{"type":"Point","coordinates":[-89.66,34.35]},"properties":{"date":"2025-05-17","kind":"wind","mag":60,"unit":"kt","src":"NWS Storm Events"}},{"type":"Feature","geometry":{"type":"Point","coordinates":[-89.43,34.19]},"properties":{"date":"2025-05-17","kind":"wind","mag":60,"unit":"kt","src":"NWS Storm Events"}},{"type":"Feature","geometry":{"type":"Point","coordinates":[-89.36,34.18]},"properties":{"date":"2025-05-17","kind":"wind","mag":60,"unit":"kt","src":"NWS Storm Events"}},{"type":"Feature","geometry":{"type":"Point","coordinates":[-89.4,34.22]},"properties":{"date":"2025-05-17","kind":"wind","mag":60,"unit":"kt","src":"NWS Storm Events"}},{"type":"Feature","geometry":{"type":"Point","coordinates":[-88.72,34.19]},"properties":{"date":"2025-05-17","kind":"wind","mag":60,"unit":"kt","src":"NWS Storm Events"}},{"type":"Feature","geometry":{"type":"Point","coordinates":[-88.68,34.26]},"properties":{"date":"2025-05-17","kind":"wind","mag":60,"unit":"kt","src":"NWS Storm Events"}},{"type":"Feature","geometry":{"type":"Point","coordinates":[-90.45,34.32]},"properties":{"date":"2025-05-16","kind":"wind","mag":52,"unit":"kt","src":"NWS Storm Events"}},{"type":"Feature","geometry":{"type":"Point","coordinates":[-88.82,34.24]},"properties":{"date":"2025-05-08","kind":"hail","mag":1.75,"unit":"in","src":"NWS Storm Events"}},{"type":"Feature","geometry":{"type":"Point","coordinates":[-88.77,34.23]},"properties":{"date":"2025-05-08","kind":"hail","mag":1,"unit":"in","src":"NWS Storm Events"}},{"type":"Feature","geometry":{"type":"Point","coordinates":[-89.69,34.8]},"properties":{"date":"2025-05-02","kind":"hail","mag":0.88,"unit":"in","src":"NWS Storm Events"}},{"type":"Feature","geometry":{"type":"Point","coordinates":[-88.74,34.24]},"properties":{"date":"2025-05-02","kind":"hail","mag":0.75,"unit":"in","src":"NWS Storm Events"}},{"type":"Feature","geometry":{"type":"Point","coordinates":[-88.73,34.26]},"properties":{"date":"2025-05-02","kind":"hail","mag":1,"unit":"in","src":"NWS Storm Events"}},{"type":"Feature","geometry":{"type":"Point","coordinates":[-88.63,34.5]},"properties":{"date":"2025-05-02","kind":"wind","mag":52,"unit":"kt","src":"NWS Storm Events"}},{"type":"Feature","geometry":{"type":"Point","coordinates":[-90.5,34.32]},"properties":{"date":"2025-05-02","kind":"wind","mag":54,"unit":"kt","src":"NWS Storm Events"}},{"type":"Feature","geometry":{"type":"Point","coordinates":[-88.77,34.11]},"properties":{"date":"2025-05-02","kind":"wind","mag":52,"unit":"kt","src":"NWS Storm Events"}},{"type":"Feature","geometry":{"type":"Point","coordinates":[-88.72,34.19]},"properties":{"date":"2025-05-02","kind":"wind","mag":52,"unit":"kt","src":"NWS Storm Events"}},{"type":"Feature","geometry":{"type":"Point","coordinates":[-88.62,34.1]},"properties":{"date":"2025-05-02","kind":"wind","mag":52,"unit":"kt","src":"NWS Storm Events"}},{"type":"Feature","geometry":{"type":"Point","coordinates":[-89.52,34.28]},"properties":{"date":"2025-04-27","kind":"wind","mag":52,"unit":"kt","src":"NWS Storm Events"}},{"type":"Feature","geometry":{"type":"Point","coordinates":[-89.66,34.33]},"properties":{"date":"2025-04-27","kind":"hail","mag":1.75,"unit":"in","src":"NWS Storm Events"}},{"type":"Feature","geometry":{"type":"Point","coordinates":[-89.52,34.26]},"properties":{"date":"2025-04-27","kind":"wind","mag":52,"unit":"kt","src":"NWS Storm Events"}},{"type":"Feature","geometry":{"type":"Point","coordinates":[-89.54,34.25]},"properties":{"date":"2025-04-27","kind":"wind","mag":52,"unit":"kt","src":"NWS Storm Events"}},{"type":"Feature","geometry":{"type":"Point","coordinates":[-89.54,34.25]},"properties":{"date":"2025-04-27","kind":"wind","mag":52,"unit":"kt","src":"NWS Storm Events"}},{"type":"Feature","geometry":{"type":"Point","coordinates":[-89.4,34.22]},"properties":{"date":"2025-04-27","kind":"wind","mag":52,"unit":"kt","src":"NWS Storm Events"}},{"type":"Feature","geometry":{"type":"Point","coordinates":[-89.52,34.25]},"properties":{"date":"2025-04-27","kind":"wind","mag":52,"unit":"kt","src":"NWS Storm Events"}},{"type":"Feature","geometry":{"type":"Point","coordinates":[-89.53,34.26]},"properties":{"date":"2025-04-27","kind":"wind","mag":52,"unit":"kt","src":"NWS Storm Events"}},{"type":"Feature","geometry":{"type":"Point","coordinates":[-90.5,34.16]},"properties":{"date":"2025-04-27","kind":"wind","mag":52,"unit":"kt","src":"NWS Storm Events"}},{"type":"Feature","geometry":{"type":"Point","coordinates":[-89.58,34.27]},"properties":{"date":"2025-04-27","kind":"wind","mag":52,"unit":"kt","src":"NWS Storm Events"}},{"type":"Feature","geometry":{"type":"Point","coordinates":[-89.5877,34.3003]},"properties":{"date":"2025-04-27","kind":"hail","mag":1,"unit":"in","src":"NWS Storm Events"}},{"type":"Feature","geometry":{"type":"Point","coordinates":[-89.36,34.23]},"properties":{"date":"2025-04-05","kind":"wind","mag":70,"unit":"kt","src":"NWS Storm Events"}},{"type":"Feature","geometry":{"type":"Point","coordinates":[-89.61,34.22]},"properties":{"date":"2025-04-05","kind":"wind","mag":69,"unit":"kt","src":"NWS Storm Events"}},{"type":"Feature","geometry":{"type":"Point","coordinates":[-88.72,34.4]},"properties":{"date":"2025-04-05","kind":"wind","mag":74,"unit":"kt","src":"NWS Storm Events"}},{"type":"Feature","geometry":{"type":"Point","coordinates":[-89.27,34.3]},"properties":{"date":"2025-04-05","kind":"wind","mag":70,"unit":"kt","src":"NWS Storm Events"}},{"type":"Feature","geometry":{"type":"Point","coordinates":[-88.74,34.4]},"properties":{"date":"2025-04-05","kind":"wind","mag":56,"unit":"kt","src":"NWS Storm Events"}},{"type":"Feature","geometry":{"type":"Point","coordinates":[-89.53,34.26]},"properties":{"date":"2025-04-05","kind":"wind","mag":64,"unit":"kt","src":"NWS Storm Events"}},{"type":"Feature","geometry":{"type":"Point","coordinates":[-88.7,34.4]},"properties":{"date":"2025-04-05","kind":"wind","mag":52,"unit":"kt","src":"NWS Storm Events"}},{"type":"Feature","geometry":{"type":"Point","coordinates":[-89.26,34.3]},"properties":{"date":"2025-04-05","kind":"wind","mag":65,"unit":"kt","src":"NWS Storm Events"}},{"type":"Feature","geometry":{"type":"Point","coordinates":[-88.7,34.4]},"properties":{"date":"2025-04-05","kind":"wind","mag":52,"unit":"kt","src":"NWS Storm Events"}},{"type":"Feature","geometry":{"type":"Point","coordinates":[-88.8,34.31]},"properties":{"date":"2025-04-05","kind":"wind","mag":61,"unit":"kt","src":"NWS Storm Events"}},{"type":"Feature","geometry":{"type":"Point","coordinates":[-89.47,34.64]},"properties":{"date":"2025-04-05","kind":"wind","mag":66,"unit":"kt","src":"NWS Storm Events"}},{"type":"Feature","geometry":{"type":"Point","coordinates":[-89.66,34.51]},"properties":{"date":"2025-04-03","kind":"wind","mag":52,"unit":"kt","src":"NWS Storm Events"}},{"type":"Feature","geometry":{"type":"Point","coordinates":[-89.41,34.94]},"properties":{"date":"2025-04-03","kind":"hail","mag":2,"unit":"in","src":"NWS Storm Events"}},{"type":"Feature","geometry":{"type":"Point","coordinates":[-89.42,34.95]},"properties":{"date":"2025-04-03","kind":"wind","mag":82,"unit":"kt","src":"NWS Storm Events"}},{"type":"Feature","geometry":{"type":"Point","coordinates":[-89.57,34.83]},"properties":{"date":"2025-04-03","kind":"wind","mag":74,"unit":"kt","src":"NWS Storm Events"}},{"type":"Feature","geometry":{"type":"Point","coordinates":[-89.44,34.77]},"properties":{"date":"2025-04-02","kind":"hail","mag":1,"unit":"in","src":"NWS Storm Events"}},{"type":"Feature","geometry":{"type":"Point","coordinates":[-88.75,34.22]},"properties":{"date":"2025-03-23","kind":"hail","mag":1,"unit":"in","src":"NWS Storm Events"}},{"type":"Feature","geometry":{"type":"Point","coordinates":[-89.51,34.29]},"properties":{"date":"2025-03-15","kind":"hail","mag":1,"unit":"in","src":"NWS Storm Events"}},{"type":"Feature","geometry":{"type":"Point","coordinates":[-88.71,34.12]},"properties":{"date":"2025-03-15","kind":"hail","mag":1.75,"unit":"in","src":"NWS Storm Events"}},{"type":"Feature","geometry":{"type":"Point","coordinates":[-88.62,34.09]},"properties":{"date":"2025-02-15","kind":"wind","mag":50,"unit":"kt","src":"NWS Storm Events"}},{"type":"Feature","geometry":{"type":"Point","coordinates":[-89.3896,34.278]},"properties":{"date":"2025-02-15","kind":"wind","mag":50,"unit":"kt","src":"NWS Storm Events"}},{"type":"Feature","geometry":{"type":"Point","coordinates":[-88.724,34.109]},"properties":{"date":"2025-02-15","kind":"wind","mag":72,"unit":"kt","src":"NWS Storm Events"}},{"type":"Feature","geometry":{"type":"Point","coordinates":[-88.614,34.113]},"properties":{"date":"2025-02-15","kind":"wind","mag":70,"unit":"kt","src":"NWS Storm Events"}},{"type":"Feature","geometry":{"type":"Point","coordinates":[-89.5555,34.3596]},"properties":{"date":"2024-08-30","kind":"wind","mag":50,"unit":"kt","src":"NWS Storm Events"}},{"type":"Feature","geometry":{"type":"Point","coordinates":[-89.5882,34.2725]},"properties":{"date":"2024-08-30","kind":"wind","mag":50,"unit":"kt","src":"NWS Storm Events"}},{"type":"Feature","geometry":{"type":"Point","coordinates":[-89.5352,34.3813]},"properties":{"date":"2024-07-28","kind":"wind","mag":50,"unit":"kt","src":"NWS Storm Events"}},{"type":"Feature","geometry":{"type":"Point","coordinates":[-89.63,34.66]},"properties":{"date":"2024-07-08","kind":"hail","mag":1,"unit":"in","src":"NWS Storm Events"}},{"type":"Feature","geometry":{"type":"Point","coordinates":[-89.5104,34.2437]},"properties":{"date":"2024-06-09","kind":"hail","mag":0.88,"unit":"in","src":"NWS Storm Events"}},{"type":"Feature","geometry":{"type":"Point","coordinates":[-88.8021,34.2058]},"properties":{"date":"2024-06-09","kind":"hail","mag":1,"unit":"in","src":"NWS Storm Events"}},{"type":"Feature","geometry":{"type":"Point","coordinates":[-88.72,34.12]},"properties":{"date":"2024-06-09","kind":"hail","mag":1.5,"unit":"in","src":"NWS Storm Events"}},{"type":"Feature","geometry":{"type":"Point","coordinates":[-88.62,34.09]},"properties":{"date":"2024-06-09","kind":"hail","mag":1.25,"unit":"in","src":"NWS Storm Events"}},{"type":"Feature","geometry":{"type":"Point","coordinates":[-88.67,34.38]},"properties":{"date":"2024-06-09","kind":"hail","mag":1.75,"unit":"in","src":"NWS Storm Events"}},{"type":"Feature","geometry":{"type":"Point","coordinates":[-88.67,34.38]},"properties":{"date":"2024-06-09","kind":"hail","mag":2.5,"unit":"in","src":"NWS Storm Events"}},{"type":"Feature","geometry":{"type":"Point","coordinates":[-88.68,34.38]},"properties":{"date":"2024-06-09","kind":"hail","mag":2,"unit":"in","src":"NWS Storm Events"}},{"type":"Feature","geometry":{"type":"Point","coordinates":[-88.6,34.4]},"properties":{"date":"2024-06-09","kind":"hail","mag":1.75,"unit":"in","src":"NWS Storm Events"}},{"type":"Feature","geometry":{"type":"Point","coordinates":[-88.6674,34.38]},"properties":{"date":"2024-06-09","kind":"wind","mag":65,"unit":"kt","src":"NWS Storm Events"}},{"type":"Feature","geometry":{"type":"Point","coordinates":[-89.36,34.69]},"properties":{"date":"2024-05-27","kind":"hail","mag":1,"unit":"in","src":"NWS Storm Events"}},{"type":"Feature","geometry":{"type":"Point","coordinates":[-89.58,34.27]},"properties":{"date":"2024-05-24","kind":"hail","mag":1,"unit":"in","src":"NWS Storm Events"}},{"type":"Feature","geometry":{"type":"Point","coordinates":[-89.62,34.23]},"properties":{"date":"2024-05-24","kind":"hail","mag":1.75,"unit":"in","src":"NWS Storm Events"}},{"type":"Feature","geometry":{"type":"Point","coordinates":[-89.62,34.24]},"properties":{"date":"2024-05-24","kind":"hail","mag":1.75,"unit":"in","src":"NWS Storm Events"}},{"type":"Feature","geometry":{"type":"Point","coordinates":[-89.59,34.45]},"properties":{"date":"2024-05-14","kind":"hail","mag":1,"unit":"in","src":"NWS Storm Events"}},{"type":"Feature","geometry":{"type":"Point","coordinates":[-88.75,34.15]},"properties":{"date":"2024-03-15","kind":"wind","mag":70,"unit":"kt","src":"NWS Storm Events"}},{"type":"Feature","geometry":{"type":"Point","coordinates":[-88.749,34.362]},"properties":{"date":"2024-02-28","kind":"hail","mag":0.88,"unit":"in","src":"NWS Storm Events"}},{"type":"Feature","geometry":{"type":"Point","coordinates":[-88.7722,34.3391]},"properties":{"date":"2024-02-28","kind":"wind","mag":50,"unit":"kt","src":"NWS Storm Events"}},{"type":"Feature","geometry":{"type":"Point","coordinates":[-90.57,34.2]},"properties":{"date":"2023-12-09","kind":"hail","mag":1,"unit":"in","src":"NWS Storm Events"}},{"type":"Feature","geometry":{"type":"Point","coordinates":[-90.54,34.22]},"properties":{"date":"2023-12-09","kind":"hail","mag":1.75,"unit":"in","src":"NWS Storm Events"}},{"type":"Feature","geometry":{"type":"Point","coordinates":[-89.6884,34.8246]},"properties":{"date":"2023-12-09","kind":"hail","mag":1,"unit":"in","src":"NWS Storm Events"}},{"type":"Feature","geometry":{"type":"Point","coordinates":[-89.58,34.83]},"properties":{"date":"2023-12-09","kind":"hail","mag":1,"unit":"in","src":"NWS Storm Events"}},{"type":"Feature","geometry":{"type":"Point","coordinates":[-88.7658,34.2359]},"properties":{"date":"2023-12-09","kind":"wind","mag":61,"unit":"kt","src":"NWS Storm Events"}},{"type":"Feature","geometry":{"type":"Point","coordinates":[-89.45,34.77]},"properties":{"date":"2023-12-09","kind":"hail","mag":1.75,"unit":"in","src":"NWS Storm Events"}},{"type":"Feature","geometry":{"type":"Point","coordinates":[-89.4403,34.3426]},"properties":{"date":"2023-12-09","kind":"hail","mag":1.25,"unit":"in","src":"NWS Storm Events"}},{"type":"Feature","geometry":{"type":"Point","coordinates":[-88.6933,34.3684]},"properties":{"date":"2023-12-09","kind":"hail","mag":1,"unit":"in","src":"NWS Storm Events"}},{"type":"Feature","geometry":{"type":"Point","coordinates":[-88.78,34.19]},"properties":{"date":"2023-12-09","kind":"hail","mag":1,"unit":"in","src":"NWS Storm Events"}},{"type":"Feature","geometry":{"type":"Point","coordinates":[-88.73,34.24]},"properties":{"date":"2023-12-09","kind":"hail","mag":1.5,"unit":"in","src":"NWS Storm Events"}},{"type":"Feature","geometry":{"type":"Point","coordinates":[-89.58,34.84]},"properties":{"date":"2023-12-09","kind":"hail","mag":4,"unit":"in","src":"NWS Storm Events"}},{"type":"Feature","geometry":{"type":"Point","coordinates":[-89.51,34.81]},"properties":{"date":"2023-12-09","kind":"hail","mag":1.5,"unit":"in","src":"NWS Storm Events"}},{"type":"Feature","geometry":{"type":"Point","coordinates":[-89.36,34.23]},"properties":{"date":"2023-09-06","kind":"wind","mag":50,"unit":"kt","src":"NWS Storm Events"}},{"type":"Feature","geometry":{"type":"Point","coordinates":[-88.7744,34.4405]},"properties":{"date":"2023-09-06","kind":"wind","mag":50,"unit":"kt","src":"NWS Storm Events"}},{"type":"Feature","geometry":{"type":"Point","coordinates":[-89.3146,34.6521]},"properties":{"date":"2023-09-06","kind":"wind","mag":60,"unit":"kt","src":"NWS Storm Events"}},{"type":"Feature","geometry":{"type":"Point","coordinates":[-88.5893,34.2518]},"properties":{"date":"2023-09-06","kind":"wind","mag":50,"unit":"kt","src":"NWS Storm Events"}},{"type":"Feature","geometry":{"type":"Point","coordinates":[-88.6701,34.3294]},"properties":{"date":"2023-09-06","kind":"wind","mag":50,"unit":"kt","src":"NWS Storm Events"}},{"type":"Feature","geometry":{"type":"Point","coordinates":[-89.52,34.33]},"properties":{"date":"2023-09-06","kind":"wind","mag":50,"unit":"kt","src":"NWS Storm Events"}},{"type":"Feature","geometry":{"type":"Point","coordinates":[-89.6235,34.388]},"properties":{"date":"2023-09-06","kind":"wind","mag":50,"unit":"kt","src":"NWS Storm Events"}},{"type":"Feature","geometry":{"type":"Point","coordinates":[-89.55,34.39]},"properties":{"date":"2023-09-06","kind":"wind","mag":50,"unit":"kt","src":"NWS Storm Events"}},{"type":"Feature","geometry":{"type":"Point","coordinates":[-89.53,34.36]},"properties":{"date":"2023-08-10","kind":"wind","mag":50,"unit":"kt","src":"NWS Storm Events"}},{"type":"Feature","geometry":{"type":"Point","coordinates":[-89.55,34.43]},"properties":{"date":"2023-08-07","kind":"wind","mag":50,"unit":"kt","src":"NWS Storm Events"}},{"type":"Feature","geometry":{"type":"Point","coordinates":[-88.726,34.3472]},"properties":{"date":"2023-08-07","kind":"wind","mag":50,"unit":"kt","src":"NWS Storm Events"}},{"type":"Feature","geometry":{"type":"Point","coordinates":[-88.66,34.39]},"properties":{"date":"2023-08-07","kind":"wind","mag":56,"unit":"kt","src":"NWS Storm Events"}},{"type":"Feature","geometry":{"type":"Point","coordinates":[-88.66,34.44]},"properties":{"date":"2023-08-06","kind":"wind","mag":60,"unit":"kt","src":"NWS Storm Events"}},{"type":"Feature","geometry":{"type":"Point","coordinates":[-89.42,34.28]},"properties":{"date":"2023-08-06","kind":"hail","mag":0.75,"unit":"in","src":"NWS Storm Events"}},{"type":"Feature","geometry":{"type":"Point","coordinates":[-89.6201,34.9564]},"properties":{"date":"2023-07-21","kind":"wind","mag":50,"unit":"kt","src":"NWS Storm Events"}},{"type":"Feature","geometry":{"type":"Point","coordinates":[-88.69,34.39]},"properties":{"date":"2023-07-21","kind":"wind","mag":50,"unit":"kt","src":"NWS Storm Events"}},{"type":"Feature","geometry":{"type":"Point","coordinates":[-88.7227,34.2588]},"properties":{"date":"2023-07-21","kind":"wind","mag":61,"unit":"kt","src":"NWS Storm Events"}},{"type":"Feature","geometry":{"type":"Point","coordinates":[-88.68,34.32]},"properties":{"date":"2023-07-21","kind":"wind","mag":61,"unit":"kt","src":"NWS Storm Events"}},{"type":"Feature","geometry":{"type":"Point","coordinates":[-89.4947,34.8698]},"properties":{"date":"2023-07-18","kind":"wind","mag":50,"unit":"kt","src":"NWS Storm Events"}},{"type":"Feature","geometry":{"type":"Point","coordinates":[-88.62,34.17]},"properties":{"date":"2023-07-02","kind":"wind","mag":56,"unit":"kt","src":"NWS Storm Events"}},{"type":"Feature","geometry":{"type":"Point","coordinates":[-89.55,34.5]},"properties":{"date":"2023-07-02","kind":"wind","mag":56,"unit":"kt","src":"NWS Storm Events"}},{"type":"Feature","geometry":{"type":"Point","coordinates":[-89.46,34.59]},"properties":{"date":"2023-07-02","kind":"wind","mag":56,"unit":"kt","src":"NWS Storm Events"}},{"type":"Feature","geometry":{"type":"Point","coordinates":[-88.66,34.44]},"properties":{"date":"2023-06-25","kind":"wind","mag":56,"unit":"kt","src":"NWS Storm Events"}},{"type":"Feature","geometry":{"type":"Point","coordinates":[-89.4963,34.9856]},"properties":{"date":"2023-06-25","kind":"wind","mag":70,"unit":"kt","src":"NWS Storm Events"}},{"type":"Feature","geometry":{"type":"Point","coordinates":[-89.47,34.79]},"properties":{"date":"2023-06-25","kind":"wind","mag":65,"unit":"kt","src":"NWS Storm Events"}},{"type":"Feature","geometry":{"type":"Point","coordinates":[-89.54,34.35]},"properties":{"date":"2023-06-25","kind":"wind","mag":56,"unit":"kt","src":"NWS Storm Events"}},{"type":"Feature","geometry":{"type":"Point","coordinates":[-90.47,34.15]},"properties":{"date":"2023-06-25","kind":"wind","mag":65,"unit":"kt","src":"NWS Storm Events"}},{"type":"Feature","geometry":{"type":"Point","coordinates":[-88.5518,34.3605]},"properties":{"date":"2023-06-25","kind":"wind","mag":56,"unit":"kt","src":"NWS Storm Events"}},{"type":"Feature","geometry":{"type":"Point","coordinates":[-88.6503,34.5089]},"properties":{"date":"2023-06-25","kind":"wind","mag":56,"unit":"kt","src":"NWS Storm Events"}},{"type":"Feature","geometry":{"type":"Point","coordinates":[-89.276,34.2828]},"properties":{"date":"2023-06-25","kind":"wind","mag":50,"unit":"kt","src":"NWS Storm Events"}},{"type":"Feature","geometry":{"type":"Point","coordinates":[-90.5938,34.2136]},"properties":{"date":"2023-06-25","kind":"wind","mag":65,"unit":"kt","src":"NWS Storm Events"}},{"type":"Feature","geometry":{"type":"Point","coordinates":[-89.4669,34.77]},"properties":{"date":"2023-06-18","kind":"wind","mag":50,"unit":"kt","src":"NWS Storm Events"}},{"type":"Feature","geometry":{"type":"Point","coordinates":[-90.6249,34.0883]},"properties":{"date":"2023-06-14","kind":"wind","mag":78,"unit":"kt","src":"NWS Storm Events"}},{"type":"Feature","geometry":{"type":"Point","coordinates":[-89.4201,34.32]},"properties":{"date":"2023-06-11","kind":"hail","mag":1,"unit":"in","src":"NWS Storm Events"}},{"type":"Feature","geometry":{"type":"Point","coordinates":[-89.458,34.3188]},"properties":{"date":"2023-06-11","kind":"hail","mag":1.75,"unit":"in","src":"NWS Storm Events"}},{"type":"Feature","geometry":{"type":"Point","coordinates":[-89.2823,34.4702]},"properties":{"date":"2023-06-11","kind":"wind","mag":50,"unit":"kt","src":"NWS Storm Events"}},{"type":"Feature","geometry":{"type":"Point","coordinates":[-88.6866,34.2267]},"properties":{"date":"2023-06-11","kind":"hail","mag":1,"unit":"in","src":"NWS Storm Events"}},{"type":"Feature","geometry":{"type":"Point","coordinates":[-88.7401,34.2299]},"properties":{"date":"2023-06-11","kind":"wind","mag":50,"unit":"kt","src":"NWS Storm Events"}},{"type":"Feature","geometry":{"type":"Point","coordinates":[-88.7477,34.2666]},"properties":{"date":"2023-06-11","kind":"wind","mag":50,"unit":"kt","src":"NWS Storm Events"}},{"type":"Feature","geometry":{"type":"Point","coordinates":[-89.359,34.2673]},"properties":{"date":"2023-06-11","kind":"hail","mag":1.5,"unit":"in","src":"NWS Storm Events"}},{"type":"Feature","geometry":{"type":"Point","coordinates":[-89.4746,34.7336]},"properties":{"date":"2023-06-11","kind":"wind","mag":50,"unit":"kt","src":"NWS Storm Events"}},{"type":"Feature","geometry":{"type":"Point","coordinates":[-88.7125,34.2565]},"properties":{"date":"2023-06-11","kind":"wind","mag":50,"unit":"kt","src":"NWS Storm Events"}},{"type":"Feature","geometry":{"type":"Point","coordinates":[-88.7391,34.3027]},"properties":{"date":"2023-06-05","kind":"wind","mag":39,"unit":"kt","src":"NWS Storm Events"}},{"type":"Feature","geometry":{"type":"Point","coordinates":[-89.5551,34.37]},"properties":{"date":"2023-06-05","kind":"hail","mag":0.88,"unit":"in","src":"NWS Storm Events"}},{"type":"Feature","geometry":{"type":"Point","coordinates":[-88.6817,34.3765]},"properties":{"date":"2023-05-11","kind":"wind","mag":50,"unit":"kt","src":"NWS Storm Events"}},{"type":"Feature","geometry":{"type":"Point","coordinates":[-88.7227,34.2659]},"properties":{"date":"2023-05-11","kind":"wind","mag":50,"unit":"kt","src":"NWS Storm Events"}},{"type":"Feature","geometry":{"type":"Point","coordinates":[-88.58,34.45]},"properties":{"date":"2023-05-07","kind":"hail","mag":1,"unit":"in","src":"NWS Storm Events"}},{"type":"Feature","geometry":{"type":"Point","coordinates":[-88.5598,34.5]},"properties":{"date":"2023-05-07","kind":"hail","mag":1.75,"unit":"in","src":"NWS Storm Events"}},{"type":"Feature","geometry":{"type":"Point","coordinates":[-89.3492,34.3168]},"properties":{"date":"2023-04-27","kind":"hail","mag":0.88,"unit":"in","src":"NWS Storm Events"}},{"type":"Feature","geometry":{"type":"Point","coordinates":[-89.53,34.947]},"properties":{"date":"2023-03-31","kind":"wind","mag":70,"unit":"kt","src":"NWS Storm Events"}},{"type":"Feature","geometry":{"type":"Point","coordinates":[-88.768,34.472]},"properties":{"date":"2023-03-31","kind":"wind","mag":65,"unit":"kt","src":"NWS Storm Events"}},{"type":"Feature","geometry":{"type":"Point","coordinates":[-88.77,34.47]},"properties":{"date":"2023-03-31","kind":"wind","mag":50,"unit":"kt","src":"NWS Storm Events"}},{"type":"Feature","geometry":{"type":"Point","coordinates":[-89.702,34.325]},"properties":{"date":"2023-03-24","kind":"wind","mag":74,"unit":"kt","src":"NWS Storm Events"}},{"type":"Feature","geometry":{"type":"Point","coordinates":[-89.5524,34.3811]},"properties":{"date":"2023-03-24","kind":"hail","mag":1,"unit":"in","src":"NWS Storm Events"}},{"type":"Feature","geometry":{"type":"Point","coordinates":[-89.5333,34.4202]},"properties":{"date":"2023-03-24","kind":"wind","mag":50,"unit":"kt","src":"NWS Storm Events"}},{"type":"Feature","geometry":{"type":"Point","coordinates":[-88.63,34.5]},"properties":{"date":"2023-03-24","kind":"hail","mag":1.75,"unit":"in","src":"NWS Storm Events"}},{"type":"Feature","geometry":{"type":"Point","coordinates":[-88.764,34.4696]},"properties":{"date":"2023-03-24","kind":"wind","mag":55,"unit":"kt","src":"NWS Storm Events"}},{"type":"Feature","geometry":{"type":"Point","coordinates":[-88.58,34.27]},"properties":{"date":"2023-03-03","kind":"wind","mag":50,"unit":"kt","src":"NWS Storm Events"}},{"type":"Feature","geometry":{"type":"Point","coordinates":[-89.52,34.95]},"properties":{"date":"2023-03-01","kind":"hail","mag":1,"unit":"in","src":"NWS Storm Events"}},{"type":"Feature","geometry":{"type":"Point","coordinates":[-89.4128,34.3177]},"properties":{"date":"2023-03-01","kind":"wind","mag":43,"unit":"kt","src":"NWS Storm Events"}},{"type":"Feature","geometry":{"type":"Point","coordinates":[-89.59,34.99]},"properties":{"date":"2022-11-29","kind":"wind","mag":50,"unit":"kt","src":"NWS Storm Events"}},{"type":"Feature","geometry":{"type":"Point","coordinates":[-88.63,34.5]},"properties":{"date":"2022-11-29","kind":"hail","mag":1.75,"unit":"in","src":"NWS Storm Events"}},{"type":"Feature","geometry":{"type":"Point","coordinates":[-88.74,34.3]},"properties":{"date":"2022-10-12","kind":"hail","mag":1,"unit":"in","src":"NWS Storm Events"}},{"type":"Feature","geometry":{"type":"Point","coordinates":[-89.64,34.54]},"properties":{"date":"2022-10-12","kind":"hail","mag":1,"unit":"in","src":"NWS Storm Events"}},{"type":"Feature","geometry":{"type":"Point","coordinates":[-88.7,34.32]},"properties":{"date":"2022-10-12","kind":"hail","mag":1,"unit":"in","src":"NWS Storm Events"}},{"type":"Feature","geometry":{"type":"Point","coordinates":[-88.58,34.27]},"properties":{"date":"2022-10-12","kind":"hail","mag":1.25,"unit":"in","src":"NWS Storm Events"}},{"type":"Feature","geometry":{"type":"Point","coordinates":[-88.69,34.38]},"properties":{"date":"2022-10-12","kind":"hail","mag":1.75,"unit":"in","src":"NWS Storm Events"}},{"type":"Feature","geometry":{"type":"Point","coordinates":[-89.5,34.5]},"properties":{"date":"2022-10-12","kind":"wind","mag":50,"unit":"kt","src":"NWS Storm Events"}},{"type":"Feature","geometry":{"type":"Point","coordinates":[-88.71,34.29]},"properties":{"date":"2022-10-12","kind":"hail","mag":1.75,"unit":"in","src":"NWS Storm Events"}},{"type":"Feature","geometry":{"type":"Point","coordinates":[-88.72,34.19]},"properties":{"date":"2022-07-09","kind":"wind","mag":50,"unit":"kt","src":"NWS Storm Events"}},{"type":"Feature","geometry":{"type":"Point","coordinates":[-88.6783,34.3765]},"properties":{"date":"2022-05-25","kind":"wind","mag":50,"unit":"kt","src":"NWS Storm Events"}},{"type":"Feature","geometry":{"type":"Point","coordinates":[-88.737,34.4111]},"properties":{"date":"2022-05-25","kind":"wind","mag":50,"unit":"kt","src":"NWS Storm Events"}},{"type":"Feature","geometry":{"type":"Point","coordinates":[-88.726,34.2376]},"properties":{"date":"2022-05-25","kind":"wind","mag":50,"unit":"kt","src":"NWS Storm Events"}},{"type":"Feature","geometry":{"type":"Point","coordinates":[-88.62,34.09]},"properties":{"date":"2022-05-25","kind":"wind","mag":50,"unit":"kt","src":"NWS Storm Events"}},{"type":"Feature","geometry":{"type":"Point","coordinates":[-89.61,34.71]},"properties":{"date":"2022-05-05","kind":"hail","mag":1,"unit":"in","src":"NWS Storm Events"}},{"type":"Feature","geometry":{"type":"Point","coordinates":[-89.44,34.77]},"properties":{"date":"2022-05-05","kind":"hail","mag":0.88,"unit":"in","src":"NWS Storm Events"}},{"type":"Feature","geometry":{"type":"Point","coordinates":[-89.43,34.77]},"properties":{"date":"2022-05-05","kind":"hail","mag":1.25,"unit":"in","src":"NWS Storm Events"}},{"type":"Feature","geometry":{"type":"Point","coordinates":[-89.7,34.23]},"properties":{"date":"2022-05-04","kind":"hail","mag":1,"unit":"in","src":"NWS Storm Events"}},{"type":"Feature","geometry":{"type":"Point","coordinates":[-89.5,34.51]},"properties":{"date":"2022-04-16","kind":"hail","mag":1,"unit":"in","src":"NWS Storm Events"}},{"type":"Feature","geometry":{"type":"Point","coordinates":[-89.5157,34.36]},"properties":{"date":"2022-04-16","kind":"wind","mag":50,"unit":"kt","src":"NWS Storm Events"}},{"type":"Feature","geometry":{"type":"Point","coordinates":[-89.62,34.95]},"properties":{"date":"2022-04-15","kind":"hail","mag":1.5,"unit":"in","src":"NWS Storm Events"}},{"type":"Feature","geometry":{"type":"Point","coordinates":[-89.55,34.8]},"properties":{"date":"2022-04-13","kind":"wind","mag":50,"unit":"kt","src":"NWS Storm Events"}},{"type":"Feature","geometry":{"type":"Point","coordinates":[-90.58,34.2]},"properties":{"date":"2022-04-13","kind":"wind","mag":60,"unit":"kt","src":"NWS Storm Events"}},{"type":"Feature","geometry":{"type":"Point","coordinates":[-89.6607,34.4439]},"properties":{"date":"2022-04-13","kind":"wind","mag":50,"unit":"kt","src":"NWS Storm Events"}},{"type":"Feature","geometry":{"type":"Point","coordinates":[-88.67,34.45]},"properties":{"date":"2022-04-13","kind":"wind","mag":50,"unit":"kt","src":"NWS Storm Events"}},{"type":"Feature","geometry":{"type":"Point","coordinates":[-89.46,34.78]},"properties":{"date":"2022-04-13","kind":"wind","mag":50,"unit":"kt","src":"NWS Storm Events"}},{"type":"Feature","geometry":{"type":"Point","coordinates":[-89.55,34.79]},"properties":{"date":"2022-04-13","kind":"wind","mag":50,"unit":"kt","src":"NWS Storm Events"}},{"type":"Feature","geometry":{"type":"Point","coordinates":[-90.4546,34.3199]},"properties":{"date":"2022-04-13","kind":"wind","mag":60,"unit":"kt","src":"NWS Storm Events"}},{"type":"Feature","geometry":{"type":"Point","coordinates":[-89.65,34.53]},"properties":{"date":"2022-03-30","kind":"wind","mag":52,"unit":"kt","src":"NWS Storm Events"}},{"type":"Feature","geometry":{"type":"Point","coordinates":[-88.79,34.12]},"properties":{"date":"2022-03-30","kind":"wind","mag":50,"unit":"kt","src":"NWS Storm Events"}},{"type":"Feature","geometry":{"type":"Point","coordinates":[-89.44,34.77]},"properties":{"date":"2022-03-30","kind":"wind","mag":50,"unit":"kt","src":"NWS Storm Events"}},{"type":"Feature","geometry":{"type":"Point","coordinates":[-88.74,34.46]},"properties":{"date":"2022-03-30","kind":"wind","mag":50,"unit":"kt","src":"NWS Storm Events"}},{"type":"Feature","geometry":{"type":"Point","coordinates":[-90.63,34.25]},"properties":{"date":"2022-03-30","kind":"wind","mag":70,"unit":"kt","src":"NWS Storm Events"}},{"type":"Feature","geometry":{"type":"Point","coordinates":[-89.51,34.36]},"properties":{"date":"2022-03-30","kind":"wind","mag":50,"unit":"kt","src":"NWS Storm Events"}},{"type":"Feature","geometry":{"type":"Point","coordinates":[-89.3077,34.436]},"properties":{"date":"2021-06-11","kind":"wind","mag":50,"unit":"kt","src":"NWS Storm Events"}},{"type":"Feature","geometry":{"type":"Point","coordinates":[-88.5756,34.2672]},"properties":{"date":"2021-06-08","kind":"wind","mag":50,"unit":"kt","src":"NWS Storm Events"}},{"type":"Feature","geometry":{"type":"Point","coordinates":[-88.8152,34.1842]},"properties":{"date":"2021-06-08","kind":"wind","mag":50,"unit":"kt","src":"NWS Storm Events"}},{"type":"Feature","geometry":{"type":"Point","coordinates":[-89.52,34.37]},"properties":{"date":"2021-05-09","kind":"wind","mag":50,"unit":"kt","src":"NWS Storm Events"}},{"type":"Feature","geometry":{"type":"Point","coordinates":[-89.5,34.5]},"properties":{"date":"2021-05-09","kind":"wind","mag":50,"unit":"kt","src":"NWS Storm Events"}},{"type":"Feature","geometry":{"type":"Point","coordinates":[-88.72,34.27]},"properties":{"date":"2021-05-09","kind":"wind","mag":50,"unit":"kt","src":"NWS Storm Events"}},{"type":"Feature","geometry":{"type":"Point","coordinates":[-88.82,34.32]},"properties":{"date":"2021-05-09","kind":"wind","mag":50,"unit":"kt","src":"NWS Storm Events"}},{"type":"Feature","geometry":{"type":"Point","coordinates":[-88.6321,34.1613]},"properties":{"date":"2021-05-09","kind":"wind","mag":50,"unit":"kt","src":"NWS Storm Events"}},{"type":"Feature","geometry":{"type":"Point","coordinates":[-88.77,34.27]},"properties":{"date":"2021-05-06","kind":"wind","mag":52,"unit":"kt","src":"NWS Storm Events"}},{"type":"Feature","geometry":{"type":"Point","coordinates":[-88.68,34.38]},"properties":{"date":"2021-05-06","kind":"wind","mag":50,"unit":"kt","src":"NWS Storm Events"}},{"type":"Feature","geometry":{"type":"Point","coordinates":[-88.674,34.2718]},"properties":{"date":"2021-05-06","kind":"wind","mag":50,"unit":"kt","src":"NWS Storm Events"}},{"type":"Feature","geometry":{"type":"Point","coordinates":[-88.58,34.27]},"properties":{"date":"2021-05-04","kind":"wind","mag":50,"unit":"kt","src":"NWS Storm Events"}},{"type":"Feature","geometry":{"type":"Point","coordinates":[-88.63,34.1]},"properties":{"date":"2021-04-09","kind":"wind","mag":50,"unit":"kt","src":"NWS Storm Events"}},{"type":"Feature","geometry":{"type":"Point","coordinates":[-88.6219,34.0893]},"properties":{"date":"2021-03-31","kind":"wind","mag":70,"unit":"kt","src":"NWS Storm Events"}},{"type":"Feature","geometry":{"type":"Point","coordinates":[-89.5624,34.3603]},"properties":{"date":"2021-03-31","kind":"wind","mag":65,"unit":"kt","src":"NWS Storm Events"}},{"type":"Feature","geometry":{"type":"Point","coordinates":[-88.5755,34.2664]},"properties":{"date":"2021-03-28","kind":"wind","mag":50,"unit":"kt","src":"NWS Storm Events"}},{"type":"Feature","geometry":{"type":"Point","coordinates":[-88.63,34.1]},"properties":{"date":"2021-03-28","kind":"wind","mag":50,"unit":"kt","src":"NWS Storm Events"}},{"type":"Feature","geometry":{"type":"Point","coordinates":[-89.4276,34.198]},"properties":{"date":"2021-03-28","kind":"wind","mag":50,"unit":"kt","src":"NWS Storm Events"}},{"type":"Feature","geometry":{"type":"Point","coordinates":[-88.7669,34.2459]},"properties":{"date":"2021-03-28","kind":"wind","mag":50,"unit":"kt","src":"NWS Storm Events"}},{"type":"Feature","geometry":{"type":"Point","coordinates":[-88.72,34.12]},"properties":{"date":"2021-03-28","kind":"wind","mag":50,"unit":"kt","src":"NWS Storm Events"}},{"type":"Feature","geometry":{"type":"Point","coordinates":[-89.6839,34.825]},"properties":{"date":"2021-03-17","kind":"hail","mag":1,"unit":"in","src":"NWS Storm Events"}},{"type":"Feature","geometry":{"type":"Point","coordinates":[-88.82,34.32]},"properties":{"date":"2021-03-17","kind":"hail","mag":1.75,"unit":"in","src":"NWS Storm Events"}},{"type":"Feature","geometry":{"type":"Point","coordinates":[-88.5726,34.148]},"properties":{"date":"2021-03-17","kind":"wind","mag":50,"unit":"kt","src":"NWS Storm Events"}},{"type":"Feature","geometry":{"type":"Point","coordinates":[-88.5593,34.1918]},"properties":{"date":"2021-03-17","kind":"wind","mag":50,"unit":"kt","src":"NWS Storm Events"}},{"type":"Feature","geometry":{"type":"Point","coordinates":[-89.5042,34.4607]},"properties":{"date":"2021-02-28","kind":"wind","mag":50,"unit":"kt","src":"NWS Storm Events"}},{"type":"Feature","geometry":{"type":"Point","coordinates":[-89.5189,34.3655]},"properties":{"date":"2020-06-05","kind":"wind","mag":50,"unit":"kt","src":"NWS Storm Events"}},{"type":"Feature","geometry":{"type":"Point","coordinates":[-88.7882,34.4511]},"properties":{"date":"2020-06-05","kind":"wind","mag":50,"unit":"kt","src":"NWS Storm Events"}},{"type":"Feature","geometry":{"type":"Point","coordinates":[-88.68,34.38]},"properties":{"date":"2020-06-05","kind":"wind","mag":50,"unit":"kt","src":"NWS Storm Events"}},{"type":"Feature","geometry":{"type":"Point","coordinates":[-88.651,34.3428]},"properties":{"date":"2020-06-05","kind":"wind","mag":50,"unit":"kt","src":"NWS Storm Events"}},{"type":"Feature","geometry":{"type":"Point","coordinates":[-88.67,34.22]},"properties":{"date":"2020-06-05","kind":"wind","mag":50,"unit":"kt","src":"NWS Storm Events"}},{"type":"Feature","geometry":{"type":"Point","coordinates":[-88.689,34.1633]},"properties":{"date":"2020-06-05","kind":"wind","mag":50,"unit":"kt","src":"NWS Storm Events"}},{"type":"Feature","geometry":{"type":"Point","coordinates":[-89.6097,34.8188]},"properties":{"date":"2020-06-05","kind":"wind","mag":50,"unit":"kt","src":"NWS Storm Events"}},{"type":"Feature","geometry":{"type":"Point","coordinates":[-90.63,34.37]},"properties":{"date":"2020-04-12","kind":"wind","mag":50,"unit":"kt","src":"NWS Storm Events"}},{"type":"Feature","geometry":{"type":"Point","coordinates":[-88.67,34.45]},"properties":{"date":"2020-04-12","kind":"wind","mag":50,"unit":"kt","src":"NWS Storm Events"}},{"type":"Feature","geometry":{"type":"Point","coordinates":[-89.69,34.3514]},"properties":{"date":"2020-04-12","kind":"wind","mag":61,"unit":"kt","src":"NWS Storm Events"}},{"type":"Feature","geometry":{"type":"Point","coordinates":[-88.6623,34.2064]},"properties":{"date":"2020-04-12","kind":"wind","mag":50,"unit":"kt","src":"NWS Storm Events"}},{"type":"Feature","geometry":{"type":"Point","coordinates":[-90.6092,34.1934]},"properties":{"date":"2020-04-12","kind":"wind","mag":78,"unit":"kt","src":"NWS Storm Events"}},{"type":"Feature","geometry":{"type":"Point","coordinates":[-88.77,34.27]},"properties":{"date":"2020-03-29","kind":"hail","mag":0.75,"unit":"in","src":"NWS Storm Events"}},{"type":"Feature","geometry":{"type":"Point","coordinates":[-89.5,34.5]},"properties":{"date":"2020-03-23","kind":"hail","mag":1.5,"unit":"in","src":"NWS Storm Events"}},{"type":"Feature","geometry":{"type":"Point","coordinates":[-89.4999,34.3612]},"properties":{"date":"2020-02-12","kind":"wind","mag":43,"unit":"kt","src":"NWS Storm Events"}},{"type":"Feature","geometry":{"type":"Point","coordinates":[-88.6661,34.4469]},"properties":{"date":"2020-02-12","kind":"wind","mag":43,"unit":"kt","src":"NWS Storm Events"}},{"type":"Feature","geometry":{"type":"Point","coordinates":[-88.68,34.38]},"properties":{"date":"2020-01-15","kind":"hail","mag":0.88,"unit":"in","src":"NWS Storm Events"}},{"type":"Feature","geometry":{"type":"Point","coordinates":[-90.4772,34.1607]},"properties":{"date":"2020-01-11","kind":"wind","mag":56,"unit":"kt","src":"NWS Storm Events"}},{"type":"Feature","geometry":{"type":"Point","coordinates":[-88.7028,34.4902]},"properties":{"date":"2020-01-11","kind":"wind","mag":50,"unit":"kt","src":"NWS Storm Events"}},{"type":"Feature","geometry":{"type":"Point","coordinates":[-89.521,34.4156]},"properties":{"date":"2020-01-11","kind":"wind","mag":61,"unit":"kt","src":"NWS Storm Events"}},{"type":"Feature","geometry":{"type":"Point","coordinates":[-88.7845,34.4513]},"properties":{"date":"2020-01-11","kind":"wind","mag":50,"unit":"kt","src":"NWS Storm Events"}},{"type":"Feature","geometry":{"type":"Point","coordinates":[-89.5221,34.2617]},"properties":{"date":"2019-12-16","kind":"wind","mag":50,"unit":"kt","src":"NWS Storm Events"}},{"type":"Feature","geometry":{"type":"Point","coordinates":[-89.37,34.23]},"properties":{"date":"2019-11-30","kind":"hail","mag":1.25,"unit":"in","src":"NWS Storm Events"}},{"type":"Feature","geometry":{"type":"Point","coordinates":[-88.67,34.45]},"properties":{"date":"2019-11-30","kind":"hail","mag":1,"unit":"in","src":"NWS Storm Events"}},{"type":"Feature","geometry":{"type":"Point","coordinates":[-89.52,34.37]},"properties":{"date":"2019-11-30","kind":"hail","mag":0.75,"unit":"in","src":"NWS Storm Events"}},{"type":"Feature","geometry":{"type":"Point","coordinates":[-88.755,34.12]},"properties":{"date":"2019-10-26","kind":"wind","mag":62,"unit":"kt","src":"NWS Storm Events"}},{"type":"Feature","geometry":{"type":"Point","coordinates":[-88.5735,34.1896]},"properties":{"date":"2019-07-22","kind":"wind","mag":43,"unit":"kt","src":"NWS Storm Events"}},{"type":"Feature","geometry":{"type":"Point","coordinates":[-88.645,34.3375]},"properties":{"date":"2019-06-27","kind":"wind","mag":50,"unit":"kt","src":"NWS Storm Events"}},{"type":"Feature","geometry":{"type":"Point","coordinates":[-88.7406,34.3765]},"properties":{"date":"2019-06-27","kind":"wind","mag":50,"unit":"kt","src":"NWS Storm Events"}},{"type":"Feature","geometry":{"type":"Point","coordinates":[-88.6465,34.3339]},"properties":{"date":"2019-06-27","kind":"wind","mag":55,"unit":"kt","src":"NWS Storm Events"}},{"type":"Feature","geometry":{"type":"Point","coordinates":[-88.5673,34.2508]},"properties":{"date":"2019-06-22","kind":"wind","mag":50,"unit":"kt","src":"NWS Storm Events"}},{"type":"Feature","geometry":{"type":"Point","coordinates":[-88.7411,34.2375]},"properties":{"date":"2019-06-19","kind":"wind","mag":50,"unit":"kt","src":"NWS Storm Events"}},{"type":"Feature","geometry":{"type":"Point","coordinates":[-88.7135,34.3239]},"properties":{"date":"2019-06-19","kind":"wind","mag":50,"unit":"kt","src":"NWS Storm Events"}},{"type":"Feature","geometry":{"type":"Point","coordinates":[-89.54,34.18]},"properties":{"date":"2019-05-08","kind":"wind","mag":45,"unit":"kt","src":"NWS Storm Events"}},{"type":"Feature","geometry":{"type":"Point","coordinates":[-88.723,34.2875]},"properties":{"date":"2019-04-13","kind":"wind","mag":50,"unit":"kt","src":"NWS Storm Events"}},{"type":"Feature","geometry":{"type":"Point","coordinates":[-88.4055,33.9803]},"properties":{"date":"2019-04-07","kind":"wind","mag":50,"unit":"kt","src":"NWS Storm Events"}},{"type":"Feature","geometry":{"type":"Point","coordinates":[-90.58,34.2]},"properties":{"date":"2018-12-01","kind":"hail","mag":1,"unit":"in","src":"NWS Storm Events"}},{"type":"Feature","geometry":{"type":"Point","coordinates":[-89.5832,34.3547]},"properties":{"date":"2018-11-05","kind":"wind","mag":50,"unit":"kt","src":"NWS Storm Events"}},{"type":"Feature","geometry":{"type":"Point","coordinates":[-88.7694,34.1904]},"properties":{"date":"2018-11-01","kind":"wind","mag":60,"unit":"kt","src":"NWS Storm Events"}},{"type":"Feature","geometry":{"type":"Point","coordinates":[-90.4832,34.45]},"properties":{"date":"2018-08-20","kind":"hail","mag":0.75,"unit":"in","src":"NWS Storm Events"}},{"type":"Feature","geometry":{"type":"Point","coordinates":[-88.67,34.1476]},"properties":{"date":"2018-07-19","kind":"wind","mag":50,"unit":"kt","src":"NWS Storm Events"}},{"type":"Feature","geometry":{"type":"Point","coordinates":[-88.7128,34.3007]},"properties":{"date":"2018-07-06","kind":"wind","mag":50,"unit":"kt","src":"NWS Storm Events"}},{"type":"Feature","geometry":{"type":"Point","coordinates":[-89.67,34.75]},"properties":{"date":"2018-07-04","kind":"wind","mag":45,"unit":"kt","src":"NWS Storm Events"}},{"type":"Feature","geometry":{"type":"Point","coordinates":[-88.6837,34.3952]},"properties":{"date":"2018-06-28","kind":"wind","mag":50,"unit":"kt","src":"NWS Storm Events"}},{"type":"Feature","geometry":{"type":"Point","coordinates":[-88.77,34.27]},"properties":{"date":"2018-06-28","kind":"wind","mag":50,"unit":"kt","src":"NWS Storm Events"}},{"type":"Feature","geometry":{"type":"Point","coordinates":[-89.6756,34.9832]},"properties":{"date":"2018-06-23","kind":"wind","mag":50,"unit":"kt","src":"NWS Storm Events"}},{"type":"Feature","geometry":{"type":"Point","coordinates":[-89.7777,34.2742]},"properties":{"date":"2018-06-21","kind":"wind","mag":50,"unit":"kt","src":"NWS Storm Events"}},{"type":"Feature","geometry":{"type":"Point","coordinates":[-88.7365,34.2559]},"properties":{"date":"2018-06-21","kind":"wind","mag":50,"unit":"kt","src":"NWS Storm Events"}},{"type":"Feature","geometry":{"type":"Point","coordinates":[-88.6775,34.2148]},"properties":{"date":"2018-06-21","kind":"wind","mag":50,"unit":"kt","src":"NWS Storm Events"}},{"type":"Feature","geometry":{"type":"Point","coordinates":[-89.334,34.6758]},"properties":{"date":"2018-06-03","kind":"wind","mag":60,"unit":"kt","src":"NWS Storm Events"}},{"type":"Feature","geometry":{"type":"Point","coordinates":[-89.4767,34.8001]},"properties":{"date":"2018-06-02","kind":"wind","mag":60,"unit":"kt","src":"NWS Storm Events"}},{"type":"Feature","geometry":{"type":"Point","coordinates":[-89.5179,34.5206]},"properties":{"date":"2018-06-01","kind":"wind","mag":55,"unit":"kt","src":"NWS Storm Events"}},{"type":"Feature","geometry":{"type":"Point","coordinates":[-88.6929,34.3711]},"properties":{"date":"2018-05-30","kind":"wind","mag":60,"unit":"kt","src":"NWS Storm Events"}},{"type":"Feature","geometry":{"type":"Point","coordinates":[-90.6126,34.2076]},"properties":{"date":"2018-04-14","kind":"wind","mag":50,"unit":"kt","src":"NWS Storm Events"}},{"type":"Feature","geometry":{"type":"Point","coordinates":[-90.4608,34.3246]},"properties":{"date":"2018-04-14","kind":"wind","mag":50,"unit":"kt","src":"NWS Storm Events"}},{"type":"Feature","geometry":{"type":"Point","coordinates":[-88.67,34.45]},"properties":{"date":"2018-03-10","kind":"hail","mag":1,"unit":"in","src":"NWS Storm Events"}},{"type":"Feature","geometry":{"type":"Point","coordinates":[-90.52,34.37]},"properties":{"date":"2017-11-03","kind":"hail","mag":1,"unit":"in","src":"NWS Storm Events"}},{"type":"Feature","geometry":{"type":"Point","coordinates":[-88.7948,34.3134]},"properties":{"date":"2017-06-15","kind":"wind","mag":50,"unit":"kt","src":"NWS Storm Events"}},{"type":"Feature","geometry":{"type":"Point","coordinates":[-88.67,34.22]},"properties":{"date":"2017-05-28","kind":"wind","mag":50,"unit":"kt","src":"NWS Storm Events"}},{"type":"Feature","geometry":{"type":"Point","coordinates":[-88.6638,34.5236]},"properties":{"date":"2017-05-27","kind":"wind","mag":55,"unit":"kt","src":"NWS Storm Events"}},{"type":"Feature","geometry":{"type":"Point","coordinates":[-89.32,34.65]},"properties":{"date":"2017-05-27","kind":"wind","mag":55,"unit":"kt","src":"NWS Storm Events"}},{"type":"Feature","geometry":{"type":"Point","coordinates":[-88.695,34.1431]},"properties":{"date":"2017-04-26","kind":"wind","mag":50,"unit":"kt","src":"NWS Storm Events"}},{"type":"Feature","geometry":{"type":"Point","coordinates":[-88.6514,34.5004]},"properties":{"date":"2017-03-27","kind":"hail","mag":1,"unit":"in","src":"NWS Storm Events"}},{"type":"Feature","geometry":{"type":"Point","coordinates":[-89.4651,34.7789]},"properties":{"date":"2017-03-27","kind":"hail","mag":1.75,"unit":"in","src":"NWS Storm Events"}},{"type":"Feature","geometry":{"type":"Point","coordinates":[-88.72,34.27]},"properties":{"date":"2017-03-10","kind":"wind","mag":50,"unit":"kt","src":"NWS Storm Events"}},{"type":"Feature","geometry":{"type":"Point","coordinates":[-88.67,34.22]},"properties":{"date":"2017-03-10","kind":"wind","mag":50,"unit":"kt","src":"NWS Storm Events"}},{"type":"Feature","geometry":{"type":"Point","coordinates":[-89.4689,34.6458]},"properties":{"date":"2016-12-17","kind":"wind","mag":50,"unit":"kt","src":"NWS Storm Events"}},{"type":"Feature","geometry":{"type":"Point","coordinates":[-89.5906,34.368]},"properties":{"date":"2016-12-17","kind":"wind","mag":50,"unit":"kt","src":"NWS Storm Events"}},{"type":"Feature","geometry":{"type":"Point","coordinates":[-89.5413,34.3678]},"properties":{"date":"2016-12-17","kind":"wind","mag":50,"unit":"kt","src":"NWS Storm Events"}},{"type":"Feature","geometry":{"type":"Point","coordinates":[-88.8319,34.2188]},"properties":{"date":"2016-11-29","kind":"hail","mag":1,"unit":"in","src":"NWS Storm Events"}},{"type":"Feature","geometry":{"type":"Point","coordinates":[-88.6298,34.1398]},"properties":{"date":"2016-07-22","kind":"wind","mag":50,"unit":"kt","src":"NWS Storm Events"}},{"type":"Feature","geometry":{"type":"Point","coordinates":[-88.6267,34.5321]},"properties":{"date":"2016-06-17","kind":"wind","mag":50,"unit":"kt","src":"NWS Storm Events"}},{"type":"Feature","geometry":{"type":"Point","coordinates":[-89.5156,34.3718]},"properties":{"date":"2016-06-17","kind":"hail","mag":0.88,"unit":"in","src":"NWS Storm Events"}},{"type":"Feature","geometry":{"type":"Point","coordinates":[-89.62,34.95]},"properties":{"date":"2016-06-15","kind":"wind","mag":50,"unit":"kt","src":"NWS Storm Events"}},{"type":"Feature","geometry":{"type":"Point","coordinates":[-90.58,34.2]},"properties":{"date":"2016-05-25","kind":"hail","mag":1,"unit":"in","src":"NWS Storm Events"}},{"type":"Feature","geometry":{"type":"Point","coordinates":[-88.7814,34.2073]},"properties":{"date":"2016-05-12","kind":"wind","mag":50,"unit":"kt","src":"NWS Storm Events"}},{"type":"Feature","geometry":{"type":"Point","coordinates":[-88.72,34.2266]},"properties":{"date":"2016-03-31","kind":"hail","mag":1,"unit":"in","src":"NWS Storm Events"}},{"type":"Feature","geometry":{"type":"Point","coordinates":[-88.7366,34.1476]},"properties":{"date":"2016-03-31","kind":"hail","mag":1,"unit":"in","src":"NWS Storm Events"}},{"type":"Feature","geometry":{"type":"Point","coordinates":[-89.6327,34.9045]},"properties":{"date":"2016-01-09","kind":"wind","mag":65,"unit":"kt","src":"NWS Storm Events"}}]}